OBJECT_NAME,OBJECT_ID,EPOCH,MEAN_MOTION,ECCENTRICITY,INCLINATION,RA_OF_ASC_NODE,ARG_OF_PERICENTER,MEAN_ANOMALY,EPHEMERIS_TYPE,CLASSIFICATION_TYPE,NORAD_CAT_ID,ELEMENT_SET_NO,REV_AT_EPOCH,BSTAR,MEAN_MOTION_DOT,MEAN_MOTION_DDOT
KUIPER-00615,2026-151M,2026-07-11T04:00:01.998720,15.37194902,.000624,51.8775,199.8739,133.8226,279.5528,0,U,69774,999,130,-.66258E-3,-.2484E-3,0
KUIPER-00616,2026-151N,2026-07-11T04:00:01.998720,15.38353554,.0003219,51.8786,199.8043,110.1365,336.8391,0,U,69775,999,130,-.62799E-3,-.24445E-3,0
KUIPER-00617,2026-151P,2026-07-11T04:00:01.998720,15.37737663,.000415,51.8798,199.8311,122.3856,310.1594,0,U,69776,999,130,-.66211E-3,-.25246E-3,0
KUIPER-00619,2026-151Q,2026-07-11T04:00:01.998720,15.38498601,.0001695,51.8805,199.7793,54.3740,41.7880,0,U,69777,999,142,-.64034E-3,-.25028E-3,0
KUIPER-00621,2026-151R,2026-07-11T04:00:01.998720,15.38288864,.0002075,51.8796,199.7990,102.0361,346.5855,0,U,69778,999,217,-.6682E-3,-.25921E-3,0
KUIPER-00622,2026-151S,2026-07-11T04:00:01.998720,15.36954821,.0006968,51.8734,199.8884,135.0374,272.2466,0,U,69779,999,203,-.66553E-3,-.24762E-3,0
KUIPER-00623,2026-151T,2026-07-11T04:00:01.998720,15.37397770,.0005143,51.8780,199.8534,122.0091,301.1470,0,U,69780,999,215,-.65548E-3,-.24732E-3,0
KUIPER-00626,2026-151U,2026-07-11T04:00:01.998720,15.35695420,.001052,51.8715,199.9515,151.9974,224.0655,0,U,69781,999,239,-.73172E-3,-.26141E-3,0
KUIPER-00627,2026-151V,2026-07-11T04:00:01.998720,15.35505620,.0011388,51.8688,199.9683,154.5618,213.1941,0,U,69782,999,130,-.64069E-3,-.22817E-3,0
KUIPER-00629,2026-151W,2026-07-11T04:00:01.998720,15.36932776,.0007488,51.8744,199.8926,134.5322,270.4486,0,U,69783,999,172,-.65877E-3,-.24502E-3,0
KUIPER-00631,2026-151X,2026-07-11T04:00:01.998720,15.36702928,.0008035,51.8712,199.9080,141.8644,255.7671,0,U,69784,999,130,-.67889E-3,-.25056E-3,0
KUIPER-00634,2026-151Y,2026-07-11T04:00:01.998720,15.37696323,.0003831,51.8772,199.8396,122.8740,307.4804,0,U,69785,999,130,-.6739E-3,-.25652E-3,0
KUIPER-00639,2026-151Z,2026-07-11T04:00:01.998720,15.36018704,.0009793,51.8686,199.9370,147.9347,235.3733,0,U,69786,999,130,-.76993E-3,-.27757E-3,0
KUIPER-00641,2026-151AA,2026-07-11T04:00:01.998720,15.35252257,.0011004,51.8674,199.9676,148.9732,218.9221,0,U,69787,999,203,-.79194E-3,-.27864E-3,0
KUIPER-00644,2026-151AB,2026-07-11T04:00:01.998720,15.36520749,.0008723,51.8737,199.9198,144.5656,247.1762,0,U,69788,999,233,-.64484E-3,-.2369E-3,0
KUIPER-00646,2026-151AC,2026-07-11T04:00:01.998720,15.35976076,.0010186,51.8700,199.9339,148.4708,236.2789,0,U,69789,999,130,-.63446E-3,-.22928E-3,0
KUIPER-00647,2026-151AD,2026-07-11T04:00:01.998720,15.35627117,.0010657,51.8662,199.9615,150.8798,219.9389,0,U,69790,999,217,-.73337E-3,-.26144E-3,0
KUIPER-00662,2026-151AE,2026-07-11T04:00:01.998720,15.36616485,.0008684,51.8724,199.9137,139.5416,255.2407,0,U,69791,999,130,-.65123E-3,-.23993E-3,0
LINK,2026-152A,2026-07-10T18:58:58.473120,15.65950668,.0023514,20.5848,1.2730,294.2343,65.5647,0,U,69792,999,116,.81922E-3,.9051E-3,0
2026-152B,2026-152B,2026-07-10T17:31:58.799424,15.64467828,.0022152,20.5985,1.8062,291.2307,68.5774,0,U,69793,999,115,.40138E-3,.41951E-3,0
ISS OBJECT YJ,1998-067YJ,2026-07-10T09:47:24.566208,15.49832001,.00078249,51.6301,185.1277,294.4662,65.5510,0,U,69794,999,125,.39913492E-3,.22274E-3,0
ISS OBJECT YK,1998-067YK,2026-07-10T09:44:40.826976,15.50360143,.00069107,51.6301,185.1147,304.3877,55.6458,0,U,69795,999,125,.73296608E-3,.42168E-3,0
ISS OBJECT YL,1998-067YL,2026-07-10T09:45:10.667808,15.50205172,.0008915,51.6300,185.1173,296.0075,63.9996,0,U,69796,999,124,.56779012E-3,.3236E-3,0
ISS OBJECT YM,1998-067YM,2026-07-10T08:12:09.616608,15.50233141,.00096656,51.6301,185.4352,286.9825,73.0104,0,U,69797,999,122,.5746412E-3,.328E-3,0
ISS OBJECT YN,1998-067YN,2026-07-10T09:45:14.510880,15.50120443,.00093145,51.6301,185.1176,298.1188,61.8859,0,U,69798,999,125,.40679807E-3,.22959E-3,0
ISS OBJECT YP,1998-067YP,2026-07-10T09:44:52.854720,15.50243158,.00098361,51.6300,185.1152,287.2373,72.7539,0,U,69799,999,124,.5739948E-3,.32776E-3,0
STARLINK-37520,2026-154A,2026-07-11T04:00:01.998720,15.98000612,.0000683,53.1595,313.4603,70.9322,235.3287,0,U,69819,999,202,-.33604E-2,-.1569834E-1,.73923E-3
STARLINK-37553,2026-154B,2026-07-11T04:00:01.998720,15.98128249,.0000745,53.1593,313.4555,66.2659,242.2755,0,U,69820,999,202,-.33252E-2,-.1564558E-1,.73567E-3
STARLINK-37561,2026-154C,2026-07-11T04:00:01.998720,15.98278216,.0000644,53.1594,313.4506,68.8408,241.9889,0,U,69821,999,202,-.33679E-2,-.1597519E-1,.76565E-3
STARLINK-37521,2026-154D,2026-07-11T04:00:01.998720,15.98387929,.0000748,53.1594,313.4470,69.3822,243.2628,0,U,69822,999,202,-.33078E-2,-.1578955E-1,.75024E-3
